start=new Date('2023-06-09T00:00:00.000Z').valueOf();
sats=[{"BSTAR":"0.00154510000000","EPOCH":"2023-06-08T13:20:05.043552","SITE":"AFETR","GP_ID":"233500520","SEMIMAJOR_AXIS":"6917.294","EPHEMERIS_TYPE":"0","CENTER_NAME":"EARTH","PERIAPSIS":"538.100","APOAPSIS":"540.218","CLASSIFICATION_TYPE":"U","ELEMENT_SET_NO":"999","OBJECT_ID":"2020-025AT","COUNTRY_CODE":"US","PERIOD":"95.425","TLE_LINE2":"2 45572  53.0527 268.3017 0001531 334.7901  25.3014 15.09031815174023","REV_AT_EPOCH":"17402","TIME_SYSTEM":"UTC","RCS_SIZE":"LARGE","MEAN_MOTION":"15.09031815","MEAN_ANOMALY":"25.3014","REF_FRAME":"TEME","FILE":"3928201","MEAN_MOTION_DDOT":"0.0000000000000","MEAN_ELEMENT_THEORY":"SGP4","RA_OF_ASC_NODE":"268.3017","NORAD_CAT_ID":"45572","ARG_OF_PERICENTER":"334.7901","OBJECT_TYPE":"PAYLOAD","ECCENTRICITY":"0.00015310","DECAY_DATE":null,"MEAN_MOTION_DOT":"0.00024520","LAUNCH_DATE":"2020-04-22","TLE_LINE1":"1 45572U 20025AT  23159.55561393  .00024520  00000-0  15451-2 0  9990","INCLINATION":"53.0527","OBJECT_NAME":"STARLINK-1320"},{"GP_ID":"233476993","BSTAR":"0.00107110000000","EPOCH":"2023-06-08T12:27:13.252032","SITE":"AFETR","EPHEMERIS_TYPE":"0","CENTER_NAME":"EARTH","SEMIMAJOR_AXIS":"6925.385","TLE_LINE2":"2 45573  53.0537 269.0081 0001170  41.6935 318.4143 15.06387958173403","PERIOD":"95.593","REV_AT_EPOCH":"17340","TIME_SYSTEM":"UTC","PERIAPSIS":"546.440","APOAPSIS":"548.061","CLASSIFICATION_TYPE":"U","ELEMENT_SET_NO":"999","OBJECT_ID":"2020-025AU","COUNTRY_CODE":"US","REF_FRAME":"TEME","MEAN_MOTION_DDOT":"0.0000000000000","FILE":"3928027","RCS_SIZE":"LARGE","MEAN_MOTION":"15.06387958","MEAN_ANOMALY":"318.4143","RA_OF_ASC_NODE":"269.0081","NORAD_CAT_ID":"45573","MEAN_ELEMENT_THEORY":"SGP4","ARG_OF_PERICENTER":"41.6935","DECAY_DATE":null,"ECCENTRICITY":"0.00011700","OBJECT_TYPE":"PAYLOAD","INCLINATION":"53.0537","OBJECT_NAME":"STARLINK-1321","MEAN_MOTION_DOT":"0.00015703","TLE_LINE1":"1 45573U 20025AU  23159.51890338  .00015703  00000-0  10711-2 0  9998","LAUNCH_DATE":"2020-04-22"},{"NORAD_CAT_ID":"45574","RA_OF_ASC_NODE":"268.8928","MEAN_ELEMENT_THEORY":"SGP4","ARG_OF_PERICENTER":"87.0569","ECCENTRICITY":"0.00010460","DECAY_DATE":null,"OBJECT_TYPE":"PAYLOAD","OBJECT_NAME":"STARLINK-1324","INCLINATION":"53.0534","LAUNCH_DATE":"2020-04-22","TLE_LINE1":"1 45574U 20025AV  23159.54470448  .00014752  00000-0  10075-2 0  9994","MEAN_MOTION_DOT":"0.00014752","GP_ID":"233477227","EPOCH":"2023-06-08T13:04:22.467072","SITE":"AFETR","BSTAR":"0.00100750000000","CENTER_NAME":"EARTH","EPHEMERIS_TYPE":"0","SEMIMAJOR_AXIS":"6925.388","TIME_SYSTEM":"UTC","REV_AT_EPOCH":"17341","TLE_LINE2":"2 45574  53.0534 268.8928 0001046  87.0569 273.0539 15.06387167173415","PERIOD":"95.593","OBJECT_ID":"2020-025AV","ELEMENT_SET_NO":"999","COUNTRY_CODE":"US","PERIAPSIS":"546.528","APOAPSIS":"547.977","CLASSIFICATION_TYPE":"U","REF_FRAME":"TEME","FILE":"3928027","MEAN_MOTION_DDOT":"0.0000000000000","MEAN_MOTION":"15.06387167","MEAN_ANOMALY":"273.0539","RCS_SIZE":"LARGE"},{"INCLINATION":"53.0526","OBJECT_NAME":"STARLINK-1328","MEAN_MOTION_DOT":"0.00017246","LAUNCH_DATE":"2020-04-22","TLE_LINE1":"1 45576U 20025AX  23159.57050546  .00017246  00000-0  11743-2 0  9996","ECCENTRICITY":"0.00010870","DECAY_DATE":null,"OBJECT_TYPE":"PAYLOAD","ARG_OF_PERICENTER":"93.6921","RA_OF_ASC_NODE":"268.7732","NORAD_CAT_ID":"45576","MEAN_ELEMENT_THEORY":"SGP4","FILE":"3928201","MEAN_MOTION_DDOT":"0.0000000000000","REF_FRAME":"TEME","RCS_SIZE":"LARGE","MEAN_ANOMALY":"266.4192","MEAN_MOTION":"15.06384689","REV_AT_EPOCH":"17402","TLE_LINE2":"2 45576  53.0526 268.7732 0001087  93.6921 266.4192 15.06384689174025","PERIOD":"95.593","TIME_SYSTEM":"UTC","CLASSIFICATION_TYPE":"U","APOAPSIS":"548.013","PERIAPSIS":"546.508","COUNTRY_CODE":"US","ELEMENT_SET_NO":"999","OBJECT_ID":"2020-025AX","EPHEMERIS_TYPE":"0","CENTER_NAME":"EARTH","SEMIMAJOR_AXIS":"6925.395","GP_ID":"233499769","BSTAR":"0.00117430000000","SITE":"AFETR","EPOCH":"2023-06-08T13:41:31.671744"},{"MEAN_MOTION_DDOT":"0.0000000000000","FILE":"3928201","REF_FRAME":"TEME","MEAN_ANOMALY":"12.3888","MEAN_MOTION":"15.33292928","RCS_SIZE":"LARGE","TIME_SYSTEM":"UTC","TLE_LINE2":"2 45577  53.0375 248.8016 0003879 347.7017  12.3888 15.33292928174295","PERIOD":"93.916","REV_AT_EPOCH":"17429","COUNTRY_CODE":"US","OBJECT_ID":"2020-025AY","ELEMENT_SET_NO":"999","CLASSIFICATION_TYPE":"U","APOAPSIS":"468.653","PERIAPSIS":"463.343","CENTER_NAME":"EARTH","EPHEMERIS_TYPE":"0","SEMIMAJOR_AXIS":"6844.133","GP_ID":"233501021","SITE":"AFETR","EPOCH":"2023-06-08T13:33:33.680160","BSTAR":"0.00212650000000","OBJECT_NAME":"STARLINK-1330","INCLINATION":"53.0375","LAUNCH_DATE":"2020-04-22","TLE_LINE1":"1 45577U 20025AY  23159.56497315  .00069664  00000-0  21265-2 0  9996","MEAN_MOTION_DOT":"0.00069664","ECCENTRICITY":"0.00038790","DECAY_DATE":null,"OBJECT_TYPE":"PAYLOAD","ARG_OF_PERICENTER":"347.7017","NORAD_CAT_ID":"45577","RA_OF_ASC_NODE":"248.8016","MEAN_ELEMENT_THEORY":"SGP4"},{"INCLINATION":"53.0524","OBJECT_NAME":"STARLINK-1331","MEAN_MOTION_DOT":"0.00018007","LAUNCH_DATE":"2020-04-22","TLE_LINE1":"1 45578U 20025AZ  23159.56313759  .00018007  00000-0  12251-2 0  9996","DECAY_DATE":null,"ECCENTRICITY":"0.00009990","OBJECT_TYPE":"PAYLOAD","ARG_OF_PERICENTER":"91.8103","RA_OF_ASC_NODE":"268.8051","NORAD_CAT_ID":"45578","MEAN_ELEMENT_THEORY":"SGP4","REF_FRAME":"TEME","FILE":"3928201","MEAN_MOTION_DDOT":"0.0000000000000","RCS_SIZE":"LARGE","MEAN_MOTION":"15.06387865","MEAN_ANOMALY":"268.3000","REV_AT_EPOCH":"17402","TLE_LINE2":"2 45578  53.0524 268.8051 0000999  91.8103 268.3000 15.06387865174021","PERIOD":"95.593","TIME_SYSTEM":"UTC","PERIAPSIS":"546.559","APOAPSIS":"547.943","CLASSIFICATION_TYPE":"U","OBJECT_ID":"2020-025AZ","ELEMENT_SET_NO":"999","COUNTRY_CODE":"US","EPHEMERIS_TYPE":"0","CENTER_NAME":"EARTH","SEMIMAJOR_AXIS":"6925.386","GP_ID":"233501270","BSTAR":"0.00122510000000","EPOCH":"2023-06-08T13:30:55.087776","SITE":"AFETR"},{"NORAD_CAT_ID":"45579","RA_OF_ASC_NODE":"228.9408","MEAN_ELEMENT_THEORY":"SGP4","ARG_OF_PERICENTER":"87.2914","DECAY_DATE":null,"ECCENTRICITY":"0.00011140","OBJECT_TYPE":"PAYLOAD","OBJECT_NAME":"STARLINK-1332","INCLINATION":"53.0519","LAUNCH_DATE":"2020-04-22","TLE_LINE1":"1 45579U 20025BA  23159.57053140 -.00000104  00000-0  11939-4 0  9997","MEAN_MOTION_DOT":"-0.00000104","GP_ID":"233469364","EPOCH":"2023-06-08T13:41:33.912960","SITE":"AFETR","BSTAR":"0.00001193900000","CENTER_NAME":"EARTH","EPHEMERIS_TYPE":"0","SEMIMAJOR_AXIS":"6925.382","TIME_SYSTEM":"UTC","REV_AT_EPOCH":"17457","TLE_LINE2":"2 45579  53.0519 228.9408 0001114  87.2914 272.8202 15.06388987174578","PERIOD":"95.593","ELEMENT_SET_NO":"999","OBJECT_ID":"2020-025BA","COUNTRY_CODE":"US","PERIAPSIS":"546.476","APOAPSIS":"548.019","CLASSIFICATION_TYPE":"U","REF_FRAME":"TEME","FILE":"3928007","MEAN_MOTION_DDOT":"0.0000000000000","MEAN_MOTION":"15.06388987","MEAN_ANOMALY":"272.8202","RCS_SIZE":"LARGE"},{"OBJECT_TYPE":"PAYLOAD","ECCENTRICITY":"0.00006730","DECAY_DATE":null,"TLE_LINE1":"1 45580U 20025BB  23159.63593230  .00005908  00000-0  41521-3 0  9990","LAUNCH_DATE":"2020-04-22","MEAN_MOTION_DOT":"0.00005908","OBJECT_NAME":"STARLINK-1333","INCLINATION":"53.0533","MEAN_ELEMENT_THEORY":"SGP4","NORAD_CAT_ID":"45580","RA_OF_ASC_NODE":"278.4822","ARG_OF_PERICENTER":"73.3230","COUNTRY_CODE":"US","ELEMENT_SET_NO":"999","OBJECT_ID":"2020-025BB","CLASSIFICATION_TYPE":"U","PERIAPSIS":"546.753","APOAPSIS":"547.685","TIME_SYSTEM":"UTC","REV_AT_EPOCH":"17388","TLE_LINE2":"2 45580  53.0533 278.4822 0000673  73.3230 286.7832 15.06398235173885","PERIOD":"95.592","MEAN_ANOMALY":"286.7832","MEAN_MOTION":"15.06398235","RCS_SIZE":"LARGE","FILE":"3928201","MEAN_MOTION_DDOT":"0.0000000000000","REF_FRAME":"TEME","SITE":"AFETR","EPOCH":"2023-06-08T15:15:44.550720","BSTAR":"0.00041521000000","GP_ID":"233500270","SEMIMAJOR_AXIS":"6925.354","CENTER_NAME":"EARTH","EPHEMERIS_TYPE":"0"},{"DECAY_DATE":null,"ECCENTRICITY":"0.00008940","OBJECT_TYPE":"PAYLOAD","INCLINATION":"53.0527","OBJECT_NAME":"STARLINK-1335","MEAN_MOTION_DOT":"0.00017178","TLE_LINE1":"1 45581U 20025BC  23159.57418944  .00017178  00000-0  11699-2 0  9996","LAUNCH_DATE":"2020-04-22","RA_OF_ASC_NODE":"268.7583","NORAD_CAT_ID":"45581","MEAN_ELEMENT_THEORY":"SGP4","ARG_OF_PERICENTER":"96.6242","REV_AT_EPOCH":"17401","TLE_LINE2":"2 45581  53.0527 268.7583 0000894  96.6242 263.4848 15.06380707174011","PERIOD":"95.593","TIME_SYSTEM":"UTC","CLASSIFICATION_TYPE":"U","PERIAPSIS":"546.654","APOAPSIS":"547.892","COUNTRY_CODE":"US","OBJECT_ID":"2020-025BC","ELEMENT_SET_NO":"999","FILE":"3928201","MEAN_MOTION_DDOT":"0.0000000000000","REF_FRAME":"TEME","RCS_SIZE":"LARGE","MEAN_ANOMALY":"263.4848","MEAN_MOTION":"15.06380707","GP_ID":"233500521","BSTAR":"0.00116990000000","SITE":"AFETR","EPOCH":"2023-06-08T13:46:49.967616","EPHEMERIS_TYPE":"0","CENTER_NAME":"EARTH","SEMIMAJOR_AXIS":"6925.408"},{"ARG_OF_PERICENTER":"103.2071","MEAN_ELEMENT_THEORY":"SGP4","NORAD_CAT_ID":"45582","RA_OF_ASC_NODE":"268.6595","TLE_LINE1":"1 45582U 20025BD  23159.59630764  .00024020  00000-0  16265-2 0  9993","LAUNCH_DATE":"2020-04-22","MEAN_MOTION_DOT":"0.00024020","OBJECT_NAME":"STARLINK-1337","INCLINATION":"53.0541","OBJECT_TYPE":"PAYLOAD","DECAY_DATE":null,"ECCENTRICITY":"0.00009480","SEMIMAJOR_AXIS":"6925.388","CENTER_NAME":"EARTH","EPHEMERIS_TYPE":"0","EPOCH":"2023-06-08T14:18:40.980096","SITE":"AFETR","BSTAR":"0.00162650000000","GP_ID":"233469113","MEAN_MOTION":"15.06387277","MEAN_ANOMALY":"256.9024","RCS_SIZE":"LARGE","REF_FRAME":"TEME","MEAN_MOTION_DDOT":"0.0000000000000","FILE":"3928007","OBJECT_ID":"2020-025BD","ELEMENT_SET_NO":"999","COUNTRY_CODE":"US","APOAPSIS":"547.909","PERIAPSIS":"546.596","CLASSIFICATION_TYPE":"U","TIME_SYSTEM":"UTC","TLE_LINE2":"2 45582  53.0541 268.6595 0000948 103.2071 256.9024 15.06387277174017","PERIOD":"95.593","REV_AT_EPOCH":"17401"}];
